QIANFAN-57              
1 62787U 25016C   25199.58408235  .00000131  00000+0  18337-3 0  9994
2 62787  88.9867 118.3586 0017326  56.7467 303.5342 13.50958209 27331
QIANFAN-58              
1 62788U 25016D   25199.55530660  .00000121  00000+0  16820-3 0  9994
2 62788  88.9837 118.2391 0016095  52.4059 307.8551 13.50951682 27375
QIANFAN-59              
1 62789U 25016E   25199.49368652  .00000118  00000+0  16345-3 0  9996
2 62789  88.9861 118.2809 0017046  55.2242 305.0511 13.50956059 27367
QIANFAN-60              
1 62790U 25016F   25199.55939795  .00000118  00000+0  16427-3 0  9998
2 62790  88.9841 118.2817 0017484  52.9492 307.3255 13.50964402 27353
QIANFAN-61              
1 62791U 25016G   25199.49779048  .00000119  00000+0  16492-3 0  9998
2 62791  88.9909 118.3455 0016904  52.1397 308.1280 13.50953996 27364
QIANFAN-62              
1 62792U 25016H   25199.57578367  .00000097  00000+0  13186-3 0  9991
2 62792  88.9855 118.2852 0018318  51.8244 308.4554 13.50954365 27361
QIANFAN-63              
1 62793U 25016J   25199.58814282  .00000125  00000+0  17463-3 0  9996
2 62793  88.9862 118.2232 0018164  55.9407 304.3466 13.50958983 27409
QIANFAN-64              
1 62794U 25016K   25199.57991796  .00000126  00000+0  17708-3 0  9995
2 62794  88.9849 118.2239 0015919  50.8844 309.3719 13.50958695 27390
